SCD 1                   
1 22490U 93009B   26145.66573722  .00000387  00000+0  54771-4 0  9999
2 22490  24.9712 346.6311 0041729 259.6357 153.5620 14.46109093757859
TECHSAT 1B (GO-32)      
1 25397U 98043D   26145.44610884  .00000054  00000+0  43712-4 0  9992
2 25397  99.0063 137.6323 0000348 329.3516  30.7641 14.24423288448098
SCD 2                   
1 25504U 98060A   26145.51347749  .00000343  00000+0  44868-4 0  9990
2 25504  24.9942 211.9894 0016487 243.3017 139.4397 14.45515642457041
DLR-TUBSAT              
1 25757U 99029B   26145.42182239  .00000084  00000+0  32594-4 0  9992
2 25757  98.6692 140.1778 0015253  61.7953 298.4779 14.52419742429946
TERRA                   
1 25994U 99068A   26145.64088029  .00000327  00000+0  75570-4 0  9995
2 25994  97.9470 196.0795 0001152 334.3287 177.4537 14.61081907406318
MAROC-TUBSAT            
1 27004U 01056D   26145.44054367 -.00000016  00000+0  34521-4 0  9992
2 27004  99.8074 321.8723 0019568 199.0689 225.2973 13.70261394223079
AQUA                    
1 27424U 02022A   26145.61742573  .00000681  00000+0  14523-3 0  9990
2 27424  98.4265 114.4520 0001899  64.5781  46.0245 14.62116944279973
SHIYAN-1 (SY-1)         
1 28220U 04012A   26145.14876837  .00012768  00000+0  40182-3 0  9994
2 28220  97.8692 221.7324 0007125 103.2211 256.9825 15.33070199207568
AURA                    
1 28376U 04026A   26145.59568056  .00000656  00000+0  14269-3 0  9991
2 28376  98.3406 101.8646 0001544  71.6705 288.4664 14.61288137162912
IRS-P5 (CARTOSAT-1)     
1 28649U 05017A   26145.52934963  .00001173  00000+0  12408-3 0  9990
2 28649  97.5320 169.6216 0002532 108.7207 251.4287 14.90979652140449
SINAH 1                 
1 28893U 05043D   26145.57044123  .00000277  00000+0  62085-4 0  9996
2 28893  98.2830 279.7634 0014122 352.4422   7.6565 14.64139456 97213
RESURS-DK 1             
1 29228U 06021A   26145.42724087  .00001742  00000+0  10427-3 0  9994
2 29228  69.9323  38.4661 0005277 318.8550  41.2217 15.13101870 99132
ARIRANG-2 (KOMPSAT-2)   
1 29268U 06031A   26145.61755627  .00000017  00000+0  11617-4 0  9991
2 29268  97.8314 331.1568 0015241 140.5969 311.3119 14.64642002 58174
LAPAN-TUBSAT            
1 29709U 07001A   26145.62858672  .00001097  00000+0  13227-3 0  9991
2 29709  98.1345 144.3456 0010687 258.9561 101.0452 14.85925975 47801
HAIYANG-1B              
1 31113U 07010A   26145.35078504  .00000087  00000+0  48990-4 0  9995
2 31113  98.3486 128.0832 0012206 269.5275  90.4510 14.31020487997363
COSMO-SKYMED 1          
1 31598U 07023A   26145.61006810  .00002915  00000+0  25870-3 0  9999
2 31598  97.8862 337.2778 0001744  96.4714 263.6705 14.96975055 26415
TERRASAR-X              
1 31698U 07026A   26145.33543143  .00000434  00000+0  23861-4 0  9990
2 31698  97.4456 153.3686 0001923  87.6040 272.5415 15.19148941 49750
WORLDVIEW-1 (WV-1)      
1 32060U 07041A   26145.57698168  .00005653  00000+0  23188-3 0  9994
2 32060  97.3924 265.6500 0003967 120.4963 239.6667 15.24631020 39433
YAOGAN-3                
1 32289U 07055A   26145.64135546  .00002483  00000+0  25887-3 0  9992
2 32289  97.8171 175.7426 0001925  95.6503 264.4935 14.90681277  2512
COSMO-SKYMED 2          
1 32376U 07059A   26145.61251830  .00000256  00000+0  38740-4 0  9994
2 32376  97.8885 329.5384 0001476  87.8378 272.3004 14.82149006998651
RADARSAT-2              
1 32382U 07061A   26145.57716716  .00000085  00000+0  49800-4 0  9997
2 32382  98.5787 152.8331 0001285  83.6967 276.4362 14.29982931962726
CARTOSAT-2A             
1 32783U 08021A   26145.58853654  .00000841  00000+0  11989-3 0  9999
2 32783  97.7648 195.0677 0011649 177.7277 182.3990 14.79201466975463
HUANJING 1A (HJ-1A)     
1 33320U 08041A   26145.64507469  .00000867  00000+0  11031-3 0  9992
2 33320  97.6677 132.3577 0018034 208.6454 151.3772 14.83925504955060
HUANJING 1B (HJ-1B)     
1 33321U 08041B   26145.60405291  .00001190  00000+0  15032-3 0  9994
2 33321  97.6516 135.5578 0034698 257.3684 102.3650 14.83273198955065
GEOEYE 1                
1 33331U 08042A   26145.60845682  .00000387  00000+0  81571-4 0  9997
2 33331  98.1239 219.8254 0005343 123.9147 236.2565 14.64700022946846
THEOS                   
1 33396U 08049A   26145.63434266  .00000451  00000+0  23164-3 0  9995
2 33396  98.5582 203.6490 0001324  85.5065 274.6263 14.20130911914765
COSMO-SKYMED 3          
1 33412U 08054A   26145.63222137  .00001350  00000+0  94955-4 0  9998
2 33412  97.8307   3.8283 0015424 348.0668  12.0192 15.06776181953547
YAOGAN-4                
1 33446U 08061A   26145.36424665  .00000817  00000+0  10667-3 0  9997
2 33446  97.9304  79.0446 0015138 140.3657 219.8666 14.83149241942288
GOSAT (IBUKI)           
1 33492U 09002A   26145.57006404  .00000173  00000+0  39001-4 0  9993
2 33492  98.0867 256.9373 0001533  98.7605 261.3773 14.67538852928145
DEIMOS-1                
1 35681U 09041A   26145.59978882  .00000449  00000+0  73456-4 0  9996
2 35681  97.7382 303.8102 0000209  94.9013 265.2221 14.75209091903555
DUBAISAT-1              
1 35682U 09041B   26145.36505544  .00000830  00000+0  13057-3 0  9997
2 35682  98.0021 278.8776 0011315 139.0267 221.1794 14.75079288901737
OCEANSAT-2              
1 35931U 09051A   26145.61001604  .00000378  00000+0  28397-3 0  9991
2 35931  98.2309 134.7156 0014606 305.1099  54.8698 13.99655371876173
WORLDVIEW-2 (WV-2)      
1 35946U 09055A   26145.61802877  .00000100  00000+0  47499-4 0  9990
2 35946  98.4681 219.3800 0003139 292.8744  67.2112 14.37937112872408
SMOS                    
1 36036U 09059A   26145.53385893  .00000204  00000+0  79091-4 0  9998
2 36036  98.4429 333.2008 0001310  92.1529 267.9809 14.39758578870191
YAOGAN-7                
1 36110U 09069A   26145.40925073  .00000407  00000+0  63391-4 0  9999
2 36110  98.0100  31.4140 0025896 111.4872 248.9103 14.77982599886266
TANDEM-X                
1 36605U 10030A   26145.33543072  .00000363  00000+0  20465-4 0  9991
2 36605  97.4455 153.3668 0001594  90.0120 270.1297 15.19148813883175
CARTOSAT-2B             
1 36795U 10035A   26145.60238418  .00000371  00000+0  57820-4 0  9995
2 36795  97.9967 196.2947 0010020 263.7785  96.2285 14.78627256856513
YAOGAN-10               
1 36834U 10038A   26145.66320887  .00001873  00000+0  22450-3 0  9998
2 36834  97.8994 169.2477 0001626  91.6517  48.3835 14.85270259853866
COSMO-SKYMED 4          
1 37216U 10060A   26145.62517667  .00000486  00000+0  67584-4 0  9995
2 37216  97.8893 329.5526 0001414  87.1548 272.9827 14.82163143841227
RESOURCESAT-2           
1 37387U 11015A   26145.56656350  .00000070  00000+0  52070-4 0  9994
2 37387  98.7649 213.1634 0010499 327.5541  32.4990 14.21606839782962
HAIYANG-2A              
1 37781U 11043A   26145.25623221  .00000227  00000+0  28308-3 0  9990
2 37781  99.3404 148.4322 0006889 132.0277 228.1460 13.74975946743501
RASAT                   
1 37791U 11044D   26145.63143706  .00000390  00000+0  76243-4 0  9992
2 37791  98.0560 237.3736 0019162 263.8389 225.3641 14.68140624789874
SRMSAT                  
1 37841U 11058D   26145.47444317  .00000372  00000+0  58040-4 0  9992
2 37841  19.9703 196.9483 0011657 315.1236 187.5474 14.11570120754605
PLEIADES 1A             
1 38012U 11076F   26145.64482481  .00000493  00000+0  11593-3 0  9991
2 38012  98.1974 221.0495 0001280 104.9664  63.8257 14.58554746768706
ZIYUAN 1-02C (ZY 1-02C) 
1 38038U 11079A   26145.62295953  .00000605  00000+0  21342-3 0  9994
2 38038  98.4077 213.4023 0006907  26.1606 133.6571 14.38194330755961
ARIRANG-3 (KOMPSAT-3)   
1 38338U 12025B   26145.58730420  .00000359  00000+0  80470-4 0  9991
2 38338  98.1160 103.4397 0005340 170.7971 189.3330 14.62182603748046
EXACTVIEW-1 (ADS-1B)    
1 38709U 12039C   26145.56107859  .00000099  00000+0  62388-4 0  9999
2 38709  98.9750 262.4434 0010048 233.1887 126.8370 14.24976846719484
SPOT 6                  
1 38755U 12047A   26145.62790231  .00000375  00000+0  90646-4 0  9993
2 38755  98.2123 213.1996 0001322  95.8972 264.2378 14.58547064729761
PLEIADES 1B             
1 39019U 12068A   26145.64677338  .00000332  00000+0  81220-4 0  9995
2 39019  98.1944 221.0085 0001396 101.9986 258.1370 14.58543861717567
GOKTURK 2               
1 39030U 12073A   26145.63450341  .00000096  00000+0  21016-4 0  9990
2 39030  97.6839 344.1957 0002136  75.4308 284.7139 14.75515114721188
LANDSAT 8               
1 39084U 13008A   26145.63838861  .00000269  00000+0  69792-4 0  9990
2 39084  98.1837 216.0569 0001360 102.9102 257.2248 14.57119058694613
SARAL                   
1 39086U 13009A   26145.62521946  .00000083  00000+0  46370-4 0  9996
2 39086  98.5560 332.4784 0002015  27.7617 332.3674 14.32849621692375
GAOFEN-1                
1 39150U 13018A   26145.63193043  .00000921  00000+0  13906-3 0  9991
2 39150  97.9095 218.1575 0016590 343.7504  16.3172 14.76548216704910
VNREDSAT 1              
1 39160U 13021B   26145.61579323  .00000747  00000+0  14852-3 0  9990
2 39160  97.9092 199.8977 0001505  96.6248 263.5127 14.64829656696988
ARIRANG-5 (KOMPSAT-5)   
1 39227U 13042A   26145.61978495  .00000394  00000+0  32440-4 0  9992
2 39227  97.6203 332.6380 0002923 184.7754 175.3445 15.04505547700461
SKYSAT-A                
1 39418U 13066C   26145.57140395  .00002731  00000+0  15821-3 0  9995
2 39418  97.3831 195.6896 0022345  36.6999 323.5757 15.12825030685064
DUBAISAT-2              
1 39419U 13066D   26145.60761846  .00002111  00000+0  13362-3 0  9990
2 39419  97.4555 136.3483 0012990 107.4741 252.7910 15.09980987682981
GPM-CORE                
1 39574U 14009C   26145.61994388  .00010411  00000+0  22313-3 0  9998
2 39574  64.9737  23.7653 0011871 266.1168  93.8616 15.45131628694323
SENTINEL-1A             
1 39634U 14016A   26145.60179388  .00000180  00000+0  47936-4 0  9998
2 39634  98.1789 153.4646 0001413  83.9711 276.1649 14.59200095646721
